[
    {
        "Altitude(m)": 604983.0530861381,
        "Argument of Periapsis(deg)": 0.0,
        "Eccentricity": 0.0,
        "Inclination(deg)": 60.0,
        "Latitude(deg)": -0.09274551594500857,
        "Longitude(deg)": -84.91608362273206,
        "Mean Anomaly(deg)": -180.00000000000003,
        "RAAN(deg)": 195.00000000000003,
        "Satellite Name": "Test1 869",
        "Satellite Number": 869,
        "Semi-Major Axis(m)": 6980739.136638005,
        "Time(s)": 0
    },
    {
        "Altitude(m)": 605055.3332285541,
        "Argument of Periapsis(deg)": 0.00010418945913296404,
        "Eccentricity": 0.0,
        "Inclination(deg)": 60.0,
        "Latitude(deg)": -0.6331554582862082,
        "Longitude(deg)": -84.64795884458988,
        "Mean Anomaly(deg)": -179.37989385453818,
        "RAAN(deg)": 194.99957995086024,
        "Satellite Name": "Test1 869",
        "Satellite Number": 869,
        "Semi-Major Axis(m)": 6980739.136638005,
        "Time(s)": 10
    }
]